CCSDS_OMM_VERS = 2.0
CREATION_DATE  = 
ORIGINATOR     = 

OBJECT_NAME    = CZ-2C R/B
OBJECT_ID      = 2022-132E
CENTER_NAME    = EARTH
REF_FRAME      = TEME
TIME_SYSTEM    = UTC
MEAN_ELEMENT_THEORY = SGP/SGP4

EPOCH          = 2025-12-19T22:37:03.108576
MEAN_MOTION    = 15.55236994
ECCENTRICITY   = .0022037
INCLINATION    = 97.2938
RA_OF_ASC_NODE = 350.2808
ARG_OF_PERICENTER = 32.7354
MEAN_ANOMALY   = 327.5261

EPHEMERIS_TYPE = 0
CLASSIFICATION_TYPE = U
NORAD_CAT_ID   = 54039
ELEMENT_SET_NO = 999
REV_AT_EPOCH   = 17795
BSTAR          = .33248E-3
MEAN_MOTION_DOT = .22653E-3
MEAN_MOTION_DDOT = 0

CCSDS_OMM_VERS = 2.0
CREATION_DATE  = 
ORIGINATOR     = 

OBJECT_NAME    = GSLV R/B
OBJECT_ID      = 2022-138AN
CENTER_NAME    = EARTH
REF_FRAME      = TEME
TIME_SYSTEM    = UTC
MEAN_ELEMENT_THEORY = SGP/SGP4

EPOCH          = 2025-12-20T11:31:52.453344
MEAN_MOTION    = 14.96165446
ECCENTRICITY   = .0024154
INCLINATION    = 87.3823
RA_OF_ASC_NODE = 192.8814
ARG_OF_PERICENTER = 80.2368
MEAN_ANOMALY   = 280.1589

EPHEMERIS_TYPE = 0
CLASSIFICATION_TYPE = U
NORAD_CAT_ID   = 54149
ELEMENT_SET_NO = 999
REV_AT_EPOCH   = 17208
BSTAR          = .14729E-3
MEAN_MOTION_DOT = .1697E-4
MEAN_MOTION_DDOT = 0

CCSDS_OMM_VERS = 2.0
CREATION_DATE  = 
ORIGINATOR     = 

OBJECT_NAME    = XRISM
OBJECT_ID      = 2023-137A
CENTER_NAME    = EARTH
REF_FRAME      = TEME
TIME_SYSTEM    = UTC
MEAN_ELEMENT_THEORY = SGP/SGP4

EPOCH          = 2025-12-20T12:00:20.757600
MEAN_MOTION    = 15.10405847
ECCENTRICITY   = .0007686
INCLINATION    = 31.0028
RA_OF_ASC_NODE = 75.4364
ARG_OF_PERICENTER = 323.1462
MEAN_ANOMALY   = 36.8647

EPHEMERIS_TYPE = 0
CLASSIFICATION_TYPE = U
NORAD_CAT_ID   = 57800
ELEMENT_SET_NO = 999
REV_AT_EPOCH   = 12580
BSTAR          = .21069E-3
MEAN_MOTION_DOT = .3644E-4
MEAN_MOTION_DDOT = 0

CCSDS_OMM_VERS = 2.0
CREATION_DATE  = 
ORIGINATOR     = 

OBJECT_NAME    = ACS3
OBJECT_ID      = 2024-077B
CENTER_NAME    = EARTH
REF_FRAME      = TEME
TIME_SYSTEM    = UTC
MEAN_ELEMENT_THEORY = SGP/SGP4

EPOCH          = 2025-12-20T11:31:26.344992
MEAN_MOTION    = 13.85817665
ECCENTRICITY   = .0076054
INCLINATION    = 97.2632
RA_OF_ASC_NODE = 308.3566
ARG_OF_PERICENTER = 319.2515
MEAN_ANOMALY   = 40.2973

EPHEMERIS_TYPE = 0
CLASSIFICATION_TYPE = U
NORAD_CAT_ID   = 59588
ELEMENT_SET_NO = 999
REV_AT_EPOCH   = 8321
BSTAR          = .12568E-1
MEAN_MOTION_DOT = .14737E-3
MEAN_MOTION_DDOT = 0

CCSDS_OMM_VERS = 2.0
CREATION_DATE  = 
ORIGINATOR     = 

OBJECT_NAME    = SZ-21 MODULE
OBJECT_ID      = 2025-246C
CENTER_NAME    = EARTH
REF_FRAME      = TEME
TIME_SYSTEM    = UTC
MEAN_ELEMENT_THEORY = SGP/SGP4

EPOCH          = 2025-12-20T00:23:58.587648
MEAN_MOTION    = 15.62845969
ECCENTRICITY   = .00056139
INCLINATION    = 41.4774
RA_OF_ASC_NODE = 331.6436
ARG_OF_PERICENTER = 298.6843
MEAN_ANOMALY   = 61.3432

EPHEMERIS_TYPE = 0
CLASSIFICATION_TYPE = U
NORAD_CAT_ID   = 66515
ELEMENT_SET_NO = 999
REV_AT_EPOCH   = 558
BSTAR          = .22500266E-3
MEAN_MOTION_DOT = .20613E-3
MEAN_MOTION_DDOT = 0

